[{"OBJECT_NAME":"SHIYAN-6 01 (SY-6 01)","OBJECT_ID":"2018-094B","EPOCH":"2026-03-09T23:04:36.967872","MEAN_MOTION":15.28649156,"ECCENTRICITY":0.00144834,"INCLINATION":97.3669,"RA_OF_ASC_NODE":84.0964,"ARG_OF_PERICENTER":135.6758,"MEAN_ANOMALY":224.5644,"EPHEMERIS_TYPE":0,"CLASSIFICATION_TYPE":"U","NORAD_CAT_ID":43711,"ELEMENT_SET_NO":999,"REV_AT_EPOCH":40632,"BSTAR":0.00024768444,"MEAN_MOTION_DOT":6.847e-5,"MEAN_MOTION_DDOT":0},{"OBJECT_NAME":"STARLINK-34891","OBJECT_ID":"2025-190Y","EPOCH":"2026-03-09T13:49:49.690848","MEAN_MOTION":15.30188856,"ECCENTRICITY":9.52e-5,"INCLINATION":53.1581,"RA_OF_ASC_NODE":168.9954,"ARG_OF_PERICENTER":78.1104,"MEAN_ANOMALY":282.0003,"EPHEMERIS_TYPE":0,"CLASSIFICATION_TYPE":"U","NORAD_CAT_ID":65373,"ELEMENT_SET_NO":999,"REV_AT_EPOCH":2921,"BSTAR":0.0011881,"MEAN_MOTION_DOT":0.00034981,"MEAN_MOTION_DDOT":0}]
